[{"OBJECT_NAME":"NUSAT-41 (C PAYNE-G)","OBJECT_ID":"2023-084N","EPOCH":"2026-03-09T21:55:54.837696","MEAN_MOTION":15.29680045,"ECCENTRICITY":0.00062175,"INCLINATION":97.5351,"RA_OF_ASC_NODE":204.1011,"ARG_OF_PERICENTER":322.2064,"MEAN_ANOMALY":37.8738,"EPHEMERIS_TYPE":0,"CLASSIFICATION_TYPE":"U","NORAD_CAT_ID":56944,"ELEMENT_SET_NO":999,"REV_AT_EPOCH":15260,"BSTAR":0.00059912824,"MEAN_MOTION_DOT":0.0001718,"MEAN_MOTION_DDOT":0},{"OBJECT_NAME":"STARLINK-32566","OBJECT_ID":"2024-209V","EPOCH":"2026-03-09T12:30:43.019136","MEAN_MOTION":15.30183721,"ECCENTRICITY":0.00012706,"INCLINATION":53.1604,"RA_OF_ASC_NODE":143.0063,"ARG_OF_PERICENTER":77.4445,"MEAN_ANOMALY":282.6698,"EPHEMERIS_TYPE":0,"CLASSIFICATION_TYPE":"U","NORAD_CAT_ID":61958,"ELEMENT_SET_NO":999,"REV_AT_EPOCH":7489,"BSTAR":0.00079376076,"MEAN_MOTION_DOT":0.00023211,"MEAN_MOTION_DDOT":0}]
